P/2022 S1 (PANSTARRS),e,34.5644,136.0875,262.8554,6.408752,0.0607497,0.50747363,70.0534,10/15.0/2025,2000,g 13.0,4.0
# From MPEC 2022-VC5
C/2022 S3 (PANSTARRS),h,01/21.5707/2023,78.4675,157.2298,267.9967,1.000374,0.839095,2000,17.0,4.0
# From MPC185657
C/2022 S4 (Lemmon),e,101.2105,220.1794,268.5618,1443,0.0000180,0.99808557,0.0000,07/18.7956/2024,2000,g  8.0,4.0
# From MPEC 2023-HD1
C/2022 S5 (PANSTARRS),e,136.5024,214.8656,232.7899,20.52058,0.0106028,0.89390167,11.1556,10/15.0/2025,2000,g 15.0,4.0
# From MPEC 2024-O39
C/2022 T1 (Lemmon),h,02/17.4594/2024,22.5408,236.9122,324.2909,1.000456,3.443932,2000,9.0,4.0
# From MPEC 2025-R69
C/2022 U1 (Leonard),h,03/26.1555/2024,128.1465,72.5293,78.6176,1.000443,4.202238,2000,8.5,4.0
# From MPEC 2023-VM5
C/2022 U2 (ATLAS),e,48.2523,304.3913,148.0343,98.68491,0.0010054,0.98651950,0.0000,01/14.2719/2023,2000,g 16.0,4.0
# From MPEC 2025-ST8
C/2022 U3 (Bok),e,33.6613,272.7871,189.1416,41387,0.0000001,0.99988336,0.0000,07/28.6767/2024,2000,g  7.5,4.0
# From MPEC 2023-W26
C/2022 U4 (Bok),e,52.0568,132.9172,88.9769,2933,0.0000062,0.99901238,0.0000,08/03.6672/2023,2000,g 10.5,4.0
# From MPEC 2024-H50
C/2022 V2 (Lemmon),e,98.9044,332.8455,168.9598,36.63642,0.0044446,0.94364589,3.1698,10/15.0/2025,2000,g 12.0,4.0
# From MPEC 2023-CD7
P/2022 W1 (Rankin),e,13.4629,38.8340,17.9484,6.976504,0.0534869,0.51637082,60.1683,10/15.0/2025,2000,g 12.5,4.0
# From MPEC 2024-EF7
C/2022 W2 (ATLAS),e,63.4969,320.4300,123.3288,342.2508,0.0001557,0.99086732,0.0000,03/08.7018/2023,2000,g 11.5,4.0
# From MPEC 2024-C04
C/2022 W3 (Leonard),e,103.5861,132.3151,116.5043,277.6251,0.0002131,0.99497046,0.0000,06/22.8667/2023,2000,g 13.0,4.0
# From MPEC 2023-M14
C/2022 Y1 (Hogan),e,18.8563,285.8727,174.9075,12.62225,0.0219786,0.76537729,23.1270,10/15.0/2025,2000,g 13.0,4.0
# From MPEC 2023-TM6
C/2022 Y2 (Lemmon),e,165.9030,216.4132,105.5349,19.75856,0.0112220,0.87132038,10.5199,10/15.0/2025,2000,g 13.5,4.0
# From MPEC 2024-GJ3
C/2023 A1 (Leonard),e,94.7446,318.2539,159.2751,221.7185,0.0002985,0.99171576,0.0000,03/18.5472/2023,2000,g 14.5,4.0
# From MPEC 2023-J95
C/2023 A2 (SWAN),e,94.7054,94.5116,142.4748,398.4656,0.0001239,0.99763029,0.0000,01/20.3677/2023,2000,g 13.5,4.0
# From MPEC 2025-T80
C/2023 A3 (Tsuchinshan-ATLAS),h,09/27.7491/2024,139.1101,21.5921,308.5260,1.000144,0.391586,2000,6.5,3.2
# From MPEC 2024-F34
P/2023 B1 (PANSTARRS),e,14.5881,78.5611,81.7846,7.068009,0.0524516,0.13115969,46.8923,10/15.0/2025,2000,g  5.5,4.0
# From MPEC 2023-XP6
C/2023 B2 (ATLAS),e,40.7659,218.0754,317.3653,600.8800,0.0000669,0.99710425,0.0000,03/10.6781/2023,2000,g 14.5,4.0
# From MPEC 2023-F81
P/2023 B3 (PANSTARRS),e,9.1561,153.9792,240.4033,4.551125,0.1015140,0.12217420,189.3557,10/15.0/2025,2000,g 10.5,4.0
# From MPEC 2025-T80
C/2023 C2 (ATLAS),e,48.3223,301.0058,357.4386,2106,0.0000102,0.99887524,0.0000,11/16.7545/2024,2000,g  7.0,4.0
# From MPEC 2024-D33
C/2023 E1 (ATLAS),e,38.2842,164.5309,105.9287,19.22461,0.0116928,0.94656556,9.7893,10/15.0/2025,2000,g 15.5,4.0
# From MPEC 2023-N01
C/2023 F1 (PANSTARRS),e,131.7027,25.3037,216.7334,241.9552,0.0002619,0.99292960,0.0000,06/27.9833/2023,2000,g 16.0,4.0
# From MPC186630
C/2023 F3 (ATLAS),h,02/02.6119/2025,145.9632,109.4674,265.5346,1.003110,5.190841,2000,6.0,4.0
# From MPEC 2025-ST8
C/2023 H1 (PANSTARRS),e,21.7834,292.6470,333.7414,745.3635,0.0000484,0.99403334,0.0000,11/28.5715/2024,2000,g  8.5,4.0
# From MPEC 2024-GJ3
C/2023 H2 (Lemmon),e,113.7420,217.0884,150.7030,249.2902,0.0002504,0.99640751,0.0000,10/29.1586/2023,2000,g 14.0,4.0
# From MPC186630
C/2023 H3 (PANSTARRS),e,2.4884,55.0876,193.2469,13.61519,0.0196186,0.61579801,11.8667,10/15.0/2025,2000,g 10.0,4.0
# From MPEC 2023-SQ0
A/2023 H4,e,76.5696,230.8266,65.0117,140.0981,0.0005944,0.98483691,0.0000,08/08.5655/2023,2000,g 18.0,2.0
# From MPEC 2025-T80
C/2023 H5 (Lemmon),h,06/30.3326/2025,97.8547,159.4767,60.1079,1.000455,4.312631,2000,7.0,4.0
# From MPEC 2024-UA9
P/2023 JN16 (Lemmon),e,3.7014,11.8527,353.3432,2.697104,0.2225141,0.14721295,64.0417,10/15.0/2025,2000,g 14.0,4.0
# From MPEC 2024-GJ3
C/2023 K1 (ATLAS),e,137.9977,223.6966,337.4081,590.0416,0.0000688,0.99654490,0.0000,09/07.4784/2023,2000,g 13.0,4.0
# From MPEC 2023-N01
P/2023 M1 (PANSTARRS),e,12.2891,216.8599,79.6953,6.839075,0.0551072,0.58664496,36.9647,10/15.0/2025,2000,g 13.5,4.0
# From MPEC 2024-TD8
P/2023 M2 (PANSTARRS),e,19.7227,83.2545,243.6176,5.585028,0.0746734,0.36974402,60.4868,10/15.0/2025,2000,g 12.5,4.0
# From MPEC 2024-TP3
P/2023 M4 (ATLAS),e,7.5919,296.2798,320.4635,5.444837,0.0775759,0.27896300,99.3542,10/15.0/2025,2000,g  7.5,4.0
# From MPEC 2024-MB8
C/2023 P1 (Nishimura),e,132.4791,66.8205,116.2315,56.22855,0.0023376,0.99601354,0.0000,09/17.5917/2023,2000,g 10.0,4.0
# From MPEC 2025-ST8
C/2023 Q1 (PANSTARRS),h,12/01.1203/2024,36.6451,7.1238,84.4209,1.004889,2.575943,2000,10.0,4.0
# From MPEC 2024-N80
C/2023 Q2 (PANSTARRS),e,104.0621,92.6802,171.6778,338.7752,0.0001581,0.99052858,0.0000,06/23.8918/2024,2000,g 11.5,4.0
# From MPEC 2025-T80
C/2023 R1 (PANSTARRS),h,04/13.4308/2026,149.3165,62.5651,144.2672,1.002376,3.569966,2000,6.0,4.0
# From MPEC 2024-L77
C/2023 R2 (PANSTARRS),h,08/12.1795/2024,30.6913,188.8864,337.3211,1.000307,0.904940,2000,10.5,4.0
# From MPEC 2023-UR6
A/2023 R3,e,12.0781,347.3327,86.9664,736.7373,0.0000493,0.99815501,0.0000,12/18.1653/2023,2000,g 20.0,2.0
# From MPEC 2025-S35
C/2023 RN3 (ATLAS),e,10.3511,207.0630,130.6321,10.16629,0.0304061,0.49027920,30.3613,10/15.0/2025,2000,g  7.5,4.0
# From MPEC 2025-T80
C/2023 RS61 (PANSTARRS),e,19.9459,347.0267,119.4546,11.89837,0.0240145,0.32795791,332.5273,10/15.0/2025,2000,g  6.8,4.0
# From MPEC 2025-ST8
P/2023 S1 (PANSTARRS),e,9.1576,317.2892,180.3208,3.844096,0.1307714,0.31848163,30.4403,10/15.0/2025,2000,g 11.5,4.0
# From MPEC 2023-XP6
C/2023 S2 (ATLAS),e,19.6406,229.4300,78.9847,160.1771,0.0004862,0.99336768,0.0000,10/15.0829/2023,2000,g 15.0,4.0
# From MPEC 2024-P23
C/2023 S3 (Lemmon),e,140.4910,233.8159,281.5133,28.39142,0.0065151,0.97080490,0.0000,01/19.6556/2024,2000,g 16.0,4.0
# From MPEC 2024-BE0
P/2023 T1 (PANSTARRS),e,6.6123,249.5765,202.8819,4.226085,0.1134480,0.33318860,57.8692,10/15.0/2025,2000,g 14.0,4.0
# From MPEC 2024-GJ3
C/2023 T2 (Borisov),e,48.5873,317.5223,111.2273,223.3519,0.0002953,0.99105998,0.0000,12/22.7117/2023,2000,g 14.5,4.0
# From MPEC 2025-ST8
C/2023 T3 (Fuls),e,27.2206,246.0023,302.8491,901.0995,0.0000364,0.99606225,0.0000,01/25.3759/2025,2000,g  8.5,4.0
# From MPC186630
C/2023 TD22 (Lemmon),e,170.4894,5.5698,32.5417,48.38662,0.0029283,0.95129962,1.1528,10/15.0/2025,2000,g 12.5,4.0
# From MPEC 2025-T80
C/2023 U1 (Fuls),e,108.1469,305.8014,255.6541,2973,0.0000061,0.99832703,0.0000,10/13.0190/2024,2000,g  8.0,4.0
# From MPEC 2025-SI6
C/2023 V1 (Lemmon),h,07/13.0540/2025,102.0123,15.0468,103.3172,1.000462,5.092585,2000,8.5,4.0
# From MPC184411
P/2023 V2 (PANSTARRS),e,9.8883,95.4733,330.5173,7.217966,0.0508255,0.56990698,31.4813,10/15.0/2025,2000,g 13.5,4.0
# From MPEC 2024-A43
C/2023 V3 (PANSTARRS),e,40.6686,91.2846,291.8117,12.75405,0.0216387,0.64769148,17.4160,10/15.0/2025,2000,g 11.5,4.0
# From MPC185658
C/2023 V4 (Camarasa-Duszanowicz),h,05/30.4150/2024,67.1208,66.3271,50.8749,1.001224,1.121964,2000,12.0,4.0
# From MPEC 2024-GJ3
C/2023 V5 (Leonard),h,12/13.9252/2023,73.5345,31.5105,56.9724,1.009448,0.846343,2000,21.5,4.0
# From MPEC 2025-A40
P/2023 V6 (PANSTARRS),e,3.9751,189.5534,192.0993,5.286977,0.0810761,0.17529026,85.3132,10/15.0/2025,2000,g 11.5,4.0
# From MPEC 2024-GJ3
C/2023 X1 (Leonard),e,110.5907,136.9796,321.4726,155.4402,0.0005086,0.99387850,0.0000,10/17.9174/2023,2000,g 13.5,3.2
# From MPEC 2025-T80
C/2023 X2 (Lemmon),h,12/28.3297/2025,76.9805,66.3010,64.7842,1.000032,5.088571,2000,8.5,3.2
# From MPEC 2024-A43
P/2023 X3 (PANSTARRS),e,4.4832,62.0151,40.8946,4.246400,0.1126348,0.28617976,60.9065,10/15.0/2025,2000,g 15.5,4.0
# From MPC184411
C/2023 X4 (Hogan),e,11.5926,28.7705,100.6070,9.926133,0.0315162,0.63139749,16.0054,10/15.0/2025,2000,g 12.0,4.0
# From MPEC 2024-DA2
C/2023 X7 (PANSTARRS),h,05/15.2291/2025,69.1161,119.2011,354.4050,1.001214,4.820416,2000,9.0,4.0
# From MPEC 2024-JU4
P/2023 Y1 (Gibbs),e,6.3837,78.8559,51.4883,3.750681,0.1356872,0.44541166,92.9467,10/15.0/2025,2000,g 17.0,4.0
# From MPEC 2025-A40
P/2023 Y2 (Gibbs),e,6.9925,79.2296,16.9216,3.747792,0.1358441,0.39224348,108.2455,10/15.0/2025,2000,g 15.5,4.0
# From MPEC 2025-T80
C/2024 A1 (ATLAS),h,06/13.3717/2025,94.4987,112.1379,353.2523,1.001913,3.874889,2000,7.0,4.0
# From MPC182881
C/2024 A2 (ATLAS),e,119.1137,78.1644,295.4884,32.18748,0.0053973,0.94160850,2.8835,10/15.0/2025,2000,g 12.5,4.0
# From MPEC 2025-R69
C/2024 B1 (Lemmon),h,10/07.7397/2024,70.9017,79.1883,66.2216,1.001104,1.633839,2000,13.0,4.0
# From MPEC 2025-A40
C/2024 B2 (Lemmon),e,99.8728,294.3879,130.3237,1491,0.0000171,0.99726552,0.0000,10/05.5998/2023,2000,g 11.5,4.0
# From MPC185658
C/2024 C1 (PANSTARRS),e,14.2268,83.8098,94.4966,10.58787,0.0286082,0.58320972,11.7251,10/15.0/2025,2000,g 11.5,4.0
# From MPEC 2024-JU4
C/2024 C2 (PANSTARRS),e,27.2843,66.4483,87.5944,16.23822,0.0150625,0.44627482,3.2720,10/15.0/2025,2000,g  6.0,4.0
# From MPC184412
C/2024 C3 (PANSTARRS),e,22.4519,359.7030,159.7144,11.67379,0.0247108,0.42492166,17.4427,10/15.0/2025,2000,g  9.0,4.0
# From MPEC 2024-Q20
C/2024 C4 (ATLAS),e,79.2823,220.6623,321.4902,83.25830,0.0012974,0.98234243,0.0000,01/30.1945/2024,2000,g 14.5,4.0
# From MPC185658
C/2024 D1 (Lemmon),e,132.4487,179.6573,125.7870,12118,0.0000007,0.99944773,0.0000,12/03.4622/2027,2000,g  7.3,4.0
# From MPEC 2025-T80
C/2024 E1 (Wierzchos),h,01/20.7673/2026,75.2398,108.0793,243.6278,1.000077,0.566079,2000,7.0,4.0
# From MPEC 2024-JU4
C/2024 E2 (Bok),e,155.6519,135.6579,358.1720,51.34651,0.0026788,0.85010313,1.9301,10/15.0/2025,2000,g  8.0,4.0
# From MPEC 2024-JU4
P/2024 F1 (PANSTARRS),e,7.0049,251.5406,229.5866,3.444251,0.1541920,0.46001694,111.0416,10/15.0/2025,2000,g 16.0,4.0
# From MPEC 2025-R69
